CTC2_L_00254001-01
1 83238U 22980AO  26070.40844907  .00000000  00000+0  00000-0 0  9995
2 83238  65.0000   0.0000 0000000   0.0000   0.0000 14.06899812    16
CTC2_L_00254001-02
1 83239U 25105KM  26070.40844907  .00000000  00000+0  00000-0 0  9998
2 83239  65.0000   0.0000 0000000   0.0000  90.0000 14.06899812    16
CTC2_L_00254001-03
1 83240U 24228HW  26070.40844907  .00000000  00000+0  00000-0 0  9995
2 83240  65.0000   0.0000 0000000   0.0000 180.0000 14.06899812    18
CTC2_L_00254001-04
1 83241U 23047BX  26070.40844907  .00000000  00000+0  00000-0 0  9994
2 83241  65.0000   0.0000 0000000   0.0000 270.0000 14.06899812    19
CTC2_L_00254002-01
1 83242U 23044PT  26070.40844907  .00000000  00000+0  00000-0 0  9992
2 83242  65.0000  12.0000 0000000   0.0000  12.0000 14.06899812    17
CTC2_L_00254002-02
1 83243U 22576NL  26070.40844907  .00000000  00000+0  00000-0 0  9992
2 83243  65.0000  12.0000 0000000   0.0000 102.0000 14.06899812    18
CTC2_L_00254002-03
1 83244U 22941MJ  26070.40844907  .00000000  00000+0  00000-0 0  9999
2 83244  65.0000  12.0000 0000000   0.0000 192.0000 14.06899812    18
CTC2_L_00254002-04
1 83245U 23377DI  26070.40844907  .00000000  00000+0  00000-0 0  9994
2 83245  65.0000  12.0000 0000000   0.0000 282.0000 14.06899812    19
CTC2_L_00254003-01
1 83246U 25694ZK  26070.40844907  .00000000  00000+0  00000-0 0  9999
2 83246  65.0000  24.0000 0000000   0.0000  24.0000 14.06899812    17
CTC2_L_00254003-02
1 83247U 26224WG  26070.40844907  .00000000  00000+0  00000-0 0  9990
2 83247  65.0000  24.0000 0000000   0.0000 114.0000 14.06899812    18
CTC2_L_00254003-03
1 83248U 23701BH  26070.40844907  .00000000  00000+0  00000-0 0  9998
2 83248  65.0000  24.0000 0000000   0.0000 204.0000 14.06899812    19
CTC2_L_00254003-04
1 83249U 24718OY  26070.40844907  .00000000  00000+0  00000-0 0  9998
2 83249  65.0000  24.0000 0000000   0.0000 294.0000 14.06899812    19
CTC2_L_00254004-01
1 83250U 23300QG  26070.40844907  .00000000  00000+0  00000-0 0  9996
2 83250  65.0000  36.0000 0000000   0.0000  36.0000 14.06899812    18
CTC2_L_00254004-02
1 83251U 22178WA  26070.40844907  .00000000  00000+0  00000-0 0  9999
2 83251  65.0000  36.0000 0000000   0.0000 126.0000 14.06899812    19
CTC2_L_00254004-03
1 83252U 26266GH  26070.40844907  .00000000  00000+0  00000-0 0  9992
2 83252  65.0000  36.0000 0000000   0.0000 216.0000 14.06899812    10
CTC2_L_00254004-04
1 83253U 23716CS  26070.40844907  .00000000  00000+0  00000-0 0  9990
2 83253  65.0000  36.0000 0000000   0.0000 306.0000 14.06899812    11
CTC2_L_00254005-01
1 83254U 24331US  26070.40844907  .00000000  00000+0  00000-0 0  9995
2 83254  65.0000  48.0000 0000000   0.0000  48.0000 14.06899812    18
CTC2_L_00254005-02
1 83255U 25671CW  26070.40844907  .00000000  00000+0  00000-0 0  9994
2 83255  65.0000  48.0000 0000000   0.0000 138.0000 14.06899812    19
CTC2_L_00254005-03
1 83256U 24369PV  26070.40844907  .00000000  00000+0  00000-0 0  9998
2 83256  65.0000  48.0000 0000000   0.0000 228.0000 14.06899812    10
CTC2_L_00254005-04
1 83257U 23995SL  26070.40844907  .00000000  00000+0  00000-0 0  9993
2 83257  65.0000  48.0000 0000000   0.0000 318.0000 14.06899812    11
CTC2_L_00254006-01
1 83258U 25527L   26070.40844907  .00000000  00000+0  00000-0 0  9997
2 83258  65.0000  60.0000 0000000   0.0000  60.0000 14.06899812    10
CTC2_L_00254006-02
1 83259U 23243VC  26070.40844907  .00000000  00000+0  00000-0 0  9991
2 83259  65.0000  60.0000 0000000   0.0000 150.0000 14.06899812    11
CTC2_L_00254006-03
1 83260U 23240DA  26070.40844907  .00000000  00000+0  00000-0 0  9990
2 83260  65.0000  60.0000 0000000   0.0000 240.0000 14.06899812    13
CTC2_L_00254006-04
1 83261U 23034GH  26070.40844907  .00000000  00000+0  00000-0 0  9992
2 83261  65.0000  60.0000 0000000   0.0000 330.0000 14.06899812    14
CTC2_L_00254007-01
1 83262U 25433YW  26070.40844907  .00000000  00000+0  00000-0 0  9998
2 83262  65.0000  72.0000 0000000   0.0000  72.0000 14.06899812    11
CTC2_L_00254007-02
1 83263U 22998RQ  26070.40844907  .00000000  00000+0  00000-0 0  9992
2 83263  65.0000  72.0000 0000000   0.0000 162.0000 14.06899812    12
CTC2_L_00254007-03
1 83264U 23241US  26070.40844907  .00000000  00000+0  00000-0 0  9995
2 83264  65.0000  72.0000 0000000   0.0000 252.0000 14.06899812    13
CTC2_L_00254007-04
1 83265U 22233VC  26070.40844907  .00000000  00000+0  00000-0 0  9996
2 83265  65.0000  72.0000 0000000   0.0000 342.0000 14.06899812    14
CTC2_L_00254008-01
1 83266U 23672PH  26070.40844907  .00000000  00000+0  00000-0 0  9995
2 83266  65.0000  84.0000 0000000   0.0000  84.0000 14.06899812    11
CTC2_L_00254008-02
1 83267U 26672IT  26070.40844907  .00000000  00000+0  00000-0 0  9999
2 83267  65.0000  84.0000 0000000   0.0000 174.0000 14.06899812    12
CTC2_L_00254008-03
1 83268U 25777XC  26070.40844907  .00000000  00000+0  00000-0 0  9995
2 83268  65.0000  84.0000 0000000   0.0000 264.0000 14.06899812    13
CTC2_L_00254008-04
1 83269U 22048Q   26070.40844907  .00000000  00000+0  00000-0 0  9994
2 83269  65.0000  84.0000 0000000   0.0000 354.0000 14.06899812    14
CTC2_L_00254009-01
1 83270U 22310MM  26070.40844907  .00000000  00000+0  00000-0 0  9998
2 83270  65.0000  96.0000 0000000   0.0000  96.0000 14.06899812    12
CTC2_L_00254009-02
1 83271U 24452RS  26070.40844907  .00000000  00000+0  00000-0 0  9998
2 83271  65.0000  96.0000 0000000   0.0000 186.0000 14.06899812    13
CTC2_L_00254009-03
1 83272U 25184FQ  26070.40844907  .00000000  00000+0  00000-0 0  9992
2 83272  65.0000  96.0000 0000000   0.0000 276.0000 14.06899812    14
CTC2_L_00254009-04
1 83273U 23947MH  26070.40844907  .00000000  00000+0  00000-0 0  9998
2 83273  65.0000  96.0000 0000000   0.0000   6.0000 14.06899812    16
CTC2_L_00254010-01
1 83274U 23622YH  26070.40844907  .00000000  00000+0  00000-0 0  9999
2 83274  65.0000 108.0000 0000000   0.0000 108.0000 14.06899812    14
CTC2_L_00254010-02
1 83275U 26999IK  26070.40844907  .00000000  00000+0  00000-0 0  9990
2 83275  65.0000 108.0000 0000000   0.0000 198.0000 14.06899812    14
CTC2_L_00254010-03
1 83276U 26242SL  26070.40844907  .00000000  00000+0  00000-0 0  9992
2 83276  65.0000 108.0000 0000000   0.0000 288.0000 14.06899812    15
CTC2_L_00254010-04
1 83277U 26623NN  26070.40844907  .00000000  00000+0  00000-0 0  9996
2 83277  65.0000 108.0000 0000000   0.0000  18.0000 14.06899812    17
CTC2_L_00254011-01
1 83278U 24012FJ  26070.40844907  .00000000  00000+0  00000-0 0  9997
2 83278  65.0000 120.0000 0000000   0.0000 120.0000 14.06899812    16
CTC2_L_00254011-02
1 83279U 26831BH  26070.40844907  .00000000  00000+0  00000-0 0  9999
2 83279  65.0000 120.0000 0000000   0.0000 210.0000 14.06899812    17
CTC2_L_00254011-03
1 83280U 25274WF  26070.40844907  .00000000  00000+0  00000-0 0  9991
2 83280  65.0000 120.0000 0000000   0.0000 300.0000 14.06899812    19
CTC2_L_00254011-04
1 83281U 25714UB  26070.40844907  .00000000  00000+0  00000-0 0  9991
2 83281  65.0000 120.0000 0000000   0.0000  30.0000 14.06899812    10
CTC2_L_00254012-01
1 83282U 23034VQ  26070.40844907  .00000000  00000+0  00000-0 0  9995
2 83282  65.0000 132.0000 0000000   0.0000 132.0000 14.06899812    17
CTC2_L_00254012-02
1 83283U 26320TH  26070.40844907  .00000000  00000+0  00000-0 0  9997
2 83283  65.0000 132.0000 0000000   0.0000 222.0000 14.06899812    18
CTC2_L_00254012-03
1 83284U 23276CT  26070.40844907  .00000000  00000+0  00000-0 0  9995
2 83284  65.0000 132.0000 0000000   0.0000 312.0000 14.06899812    19
CTC2_L_00254012-04
1 83285U 26174XO  26070.40844907  .00000000  00000+0  00000-0 0  9996
2 83285  65.0000 132.0000 0000000   0.0000  42.0000 14.06899812    10
CTC2_L_00254013-01
1 83286U 26109HE  26070.40844907  .00000000  00000+0  00000-0 0  9995
2 83286  65.0000 144.0000 0000000   0.0000 144.0000 14.06899812    17
CTC2_L_00254013-02
1 83287U 23516IP  26070.40844907  .00000000  00000+0  00000-0 0  9995
2 83287  65.0000 144.0000 0000000   0.0000 234.0000 14.06899812    18
CTC2_L_00254013-03
1 83288U 26437KO  26070.40844907  .00000000  00000+0  00000-0 0  9991
2 83288  65.0000 144.0000 0000000   0.0000 324.0000 14.06899812    19
CTC2_L_00254013-04
1 83289U 26745XL  26070.40844907  .00000000  00000+0  00000-0 0  9994
2 83289  65.0000 144.0000 0000000   0.0000  54.0000 14.06899812    10
CTC2_L_00254014-01
1 83290U 25398XD  26070.40844907  .00000000  00000+0  00000-0 0  9999
2 83290  65.0000 156.0000 0000000   0.0000 156.0000 14.06899812    18
CTC2_L_00254014-02
1 83291U 22809HH  26070.40844907  .00000000  00000+0  00000-0 0  9994
2 83291  65.0000 156.0000 0000000   0.0000 246.0000 14.06899812    19
CTC2_L_00254014-03
1 83292U 22107GH  26070.40844907  .00000000  00000+0  00000-0 0  9996
2 83292  65.0000 156.0000 0000000   0.0000 336.0000 14.06899812    10
CTC2_L_00254014-04
1 83293U 22450QM  26070.40844907  .00000000  00000+0  00000-0 0  9998
2 83293  65.0000 156.0000 0000000   0.0000  66.0000 14.06899812    11
CTC2_L_00254015-01
1 83294U 23013HW  26070.40844907  .00000000  00000+0  00000-0 0  9995
2 83294  65.0000 168.0000 0000000   0.0000 168.0000 14.06899812    18
CTC2_L_00254015-02
1 83295U 26291TY  26070.40844907  .00000000  00000+0  00000-0 0  9997
2 83295  65.0000 168.0000 0000000   0.0000 258.0000 14.06899812    19
CTC2_L_00254015-03
1 83296U 26711LK  26070.40844907  .00000000  00000+0  00000-0 0  9995
2 83296  65.0000 168.0000 0000000   0.0000 348.0000 14.06899812    10
CTC2_L_00254015-04
1 83297U 22625KI  26070.40844907  .00000000  00000+0  00000-0 0  9996
2 83297  65.0000 168.0000 0000000   0.0000  78.0000 14.06899812    11
CTC2_L_00254016-01
1 83298U 26978KK  26070.40844907  .00000000  00000+0  00000-0 0  9992
2 83298  65.0000 180.0000 0000000   0.0000 180.0000 14.06899812    10
CTC2_L_00254016-02
1 83299U 26440UL  26070.40844907  .00000000  00000+0  00000-0 0  9997
2 83299  65.0000 180.0000 0000000   0.0000 270.0000 14.06899812    11
